{"type": "FeatureCollection", "features": [ {"type": "Feature", "properties": {"norad_id": 34375, "name": "IRIDIUM 33 DEB", "group": "iridium-33-debris", "lat": 9.54394449594669, "lon": -175.88119539178797, "alt_km": 874.2861321061137, "timestamp": "2025-12-10T16:57:12.023202+00:00", "meta": {"OBJECT_NAME": "IRIDIUM 33 DEB", "OBJECT_ID": "1997-051FT", "EPOCH": "2025-12-10T07:35:27.786048", "MEAN_MOTION": 14.17985501, "ECCENTRICITY": 0.0103124, "INCLINATION": 86.4328, "RA_OF_ASC_NODE": 183.6751, "ARG_OF_PERICENTER": 134.3251, "MEAN_ANOMALY": 46.2443, "EPHEMERIS_TYPE": 0, "CLASSIFICATION_TYPE": "U", "NORAD_CAT_ID": 34375, "ELEMENT_SET_NO": 999, "REV_AT_EPOCH": 86677, "BSTAR": 0.00060254, "MEAN_MOTION_DOT": 1.319e-05, "MEAN_MOTION_DDOT": 0}, "tle": {"line1": "1 34375U 97051FT  25344.31629382  .00001319  00000+0  60254-3 0  9999", "line2": "2 34375  86.4328 183.6751 0103124 134.3251  46.2443 14.17985501866774"}}, "geometry": {"type": "Point", "coordinates": [-175.88119539178797, 9.54394449594669]}}, {"type": "Feature", "properties": {"norad_id": 34376, "name": "IRIDIUM 33 DEB", "group": "iridium-33-debris", "lat": 56.81608546305083, "lon": 13.134073435250581, "alt_km": 688.1193966282826, "timestamp": "2025-12-10T16:57:12.023213+00:00", "meta": {"OBJECT_NAME": "IRIDIUM 33 DEB", "OBJECT_ID": "1997-051FU", "EPOCH": "2025-12-10T11:45:58.662720", "MEAN_MOTION": 14.62514696, "ECCENTRICITY": 0.0026927, "INCLINATION": 86.2989, "RA_OF_ASC_NODE": 7.5509, "ARG_OF_PERICENTER": 174.2059, "MEAN_ANOMALY": 185.9469, "EPHEMERIS_TYPE": 0, "CLASSIFICATION_TYPE": "U", "NORAD_CAT_ID": 34376, "ELEMENT_SET_NO": 999, "REV_AT_EPOCH": 87974, "BSTAR": 0.0021548, "MEAN_MOTION_DOT": 0.0001101, "MEAN_MOTION_DDOT": 0}, "tle": {"line1": "1 34376U 97051FU  25344.49026230  .00011010  00000+0  21548-2 0  9993", "line2": "2 34376  86.2989   7.5509 0026927 174.2059 185.9469 14.62514696879748"}}, "geometry": {"type": "Point", "coordinates": [13.134073435250581, 56.81608546305083]}}, {"type": "Feature", "properties": {"norad_id": 34486, "name": "IRIDIUM 33 DEB", "group": "iridium-33-debris", "lat": 31.060328933506344, "lon": 15.139745780250045, "alt_km": 578.4832500307475, "timestamp": "2025-12-10T16:57:12.023224+00:00", "meta": {"OBJECT_NAME": "IRIDIUM 33 DEB", "OBJECT_ID": "1997-051GB", "EPOCH": "2025-12-10T12:34:52.075776", "MEAN_MOTION": 14.95631974, "ECCENTRICITY": 0.001349, "INCLINATION": 86.3938, "RA_OF_ASC_NODE": 13.0469, "ARG_OF_PERICENTER": 119.9859, "MEAN_ANOMALY": 11.1663, "EPHEMERIS_TYPE": 0, "CLASSIFICATION_TYPE": "U", "NORAD_CAT_ID": 34486, "ELEMENT_SET_NO": 999, "REV_AT_EPOCH": 88953, "BSTAR": 0.003193, "MEAN_MOTION_DOT": 0.00035691, "MEAN_MOTION_DDOT": 0}, "tle": {"line1": "1 34486U 97051GB  25344.52421384  .00035691  00000+0  31930-2 0  9995", "line2": "2 34486  86.3938  13.0469 0013490 119.9859  11.1663 14.95631974889536"}}, "geometry": {"type": "Point", "coordinates": [15.139745780250045, 31.060328933506344]}}, {"type": "Feature", "properties": {"norad_id": 34487, "name": "IRIDIUM 33 DEB", "group": "iridium-33-debris", "lat": 69.8845731097694, "lon": 23.30772903194164, "alt_km": 731.1446883554845, "timestamp": "2025-12-10T16:57:12.023234+00:00", "meta": {"OBJECT_NAME": "IRIDIUM 33 DEB", "OBJECT_ID": "1997-051GC", "EPOCH": "2025-12-10T01:47:16.386144", "MEAN_MOTION": 14.4321077, "ECCENTRICITY": 0.00325626, "INCLINATION": 86.3436, "RA_OF_ASC_NODE": 13.5248, "ARG_OF_PERICENTER": 136.7627, "MEAN_ANOMALY": 252.8644, "EPHEMERIS_TYPE": 0, "CLASSIFICATION_TYPE": "U", "NORAD_CAT_ID": 34487, "ELEMENT_SET_NO": 999, "REV_AT_EPOCH": 88210, "BSTAR": 0.00027422216, "MEAN_MOTION_DOT": 9.48e-06, "MEAN_MOTION_DDOT": 0}, "tle": {"line1": "1 34487U 97051GC  25344.07449521  .00000948  00000+0  27422-3 0  9998", "line2": "2 34487  86.3436  13.5248 0032562 136.7627 252.8644 14.43210770882100"}}, "geometry": {"type": "Point", "coordinates": [23.30772903194164, 69.8845731097694]}}, {"type": "Feature", "properties": {"norad_id": 34488, "name": "IRIDIUM 33 DEB", "group": "iridium-33-debris", "lat": 48.33447191640177, "lon": 122.6775236367831, "alt_km": 473.6522641921438, "timestamp": "2025-12-10T16:57:12.023245+00:00", "meta": {"OBJECT_NAME": "IRIDIUM 33 DEB", "OBJECT_ID": "1997-051GD", "EPOCH": "2025-12-10T08:31:31.497024", "MEAN_MOTION": 15.28485636, "ECCENTRICITY": 0.0013917, "INCLINATION": 86.3244, "RA_OF_ASC_NODE": 306.9938, "ARG_OF_PERICENTER": 55.6103, "MEAN_ANOMALY": 304.6458, "EPHEMERIS_TYPE": 0, "CLASSIFICATION_TYPE": "U", "NORAD_CAT_ID": 34488, "ELEMENT_SET_NO": 999, "REV_AT_EPOCH": 89203, "BSTAR": 0.0064311, "MEAN_MOTION_DOT": 0.00182742, "MEAN_MOTION_DDOT": 0}, "tle": {"line1": "1 34488U 97051GD  25344.35522566  .00182742  00000+0  64311-2 0  9991", "line2": "2 34488  86.3244 306.9938 0013917  55.6103 304.6458 15.28485636892035"}}, "geometry": {"type": "Point", "coordinates": [122.6775236367831, 48.33447191640177]}}, {"type": "Feature", "properties": {"norad_id": 34492, "name": "IRIDIUM 33 DEB", "group": "iridium-33-debris", "lat": -69.75707568883006, "lon": -34.177548386584526, "alt_km": 716.6227001750967, "timestamp": "2025-12-10T16:57:12.023255+00:00", "meta": {"OBJECT_NAME": "IRIDIUM 33 DEB", "OBJECT_ID": "1997-051GH", "EPOCH": "2025-12-10T11:09:51.703200", "MEAN_MOTION": 14.25634536, "ECCENTRICITY": 0.0189198, "INCLINATION": 86.473, "RA_OF_ASC_NODE": 335.5473, "ARG_OF_PERICENTER": 245.5701, "MEAN_ANOMALY": 245.7255, "EPHEMERIS_TYPE": 0, "CLASSIFICATION_TYPE": "U", "NORAD_CAT_ID": 34492, "ELEMENT_SET_NO": 999, "REV_AT_EPOCH": 85026, "BSTAR": 0.0074682, "MEAN_MOTION_DOT": 0.00021406, "MEAN_MOTION_DDOT": 0}, "tle": {"line1": "1 34492U 97051GH  25344.46518175  .00021406  00000+0  74682-2 0  9990", "line2": "2 34492  86.4730 335.5473 0189198 245.5701 245.7255 14.25634536850262"}}, "geometry": {"type": "Point", "coordinates": [-34.177548386584526, -69.75707568883006]}}, {"type": "Feature", "properties": {"norad_id": 34497, "name": "IRIDIUM 33 DEB", "group": "iridium-33-debris", "lat": 25.71799583507695, "lon": -128.52642817777857, "alt_km": 854.9892518183369, "timestamp": "2025-12-10T16:57:12.023265+00:00", "meta": {"OBJECT_NAME": "IRIDIUM 33 DEB", "OBJECT_ID": "1997-051GN", "EPOCH": "2025-12-10T04:35:23.086752", "MEAN_MOTION": 14.2744131, "ECCENTRICITY": 0.00790645, "INCLINATION": 86.2779, "RA_OF_ASC_NODE": 53.4903, "ARG_OF_PERICENTER": 347.8917, "MEAN_ANOMALY": 40.4515, "EPHEMERIS_TYPE": 0, "CLASSIFICATION_TYPE": "U", "NORAD_CAT_ID": 34497, "ELEMENT_SET_NO": 999, "REV_AT_EPOCH": 86847, "BSTAR": 0.00082191095, "MEAN_MOTION_DOT": 2.102e-05, "MEAN_MOTION_DDOT": 0}, "tle": {"line1": "1 34497U 97051GN  25344.19123943  .00002102  00000+0  82191-3 0  9997", "line2": "2 34497  86.2779  53.4903 0079064 347.8917  40.4515 14.27441310868476"}}, "geometry": {"type": "Point", "coordinates": [-128.52642817777857, 25.71799583507695]}}, {"type": "Feature", "properties": {"norad_id": 34508, "name": "IRIDIUM 33 DEB", "group": "iridium-33-debris", "lat": -52.3618704558434, "lon": -71.77330967299397, "alt_km": 742.2699387294851, "timestamp": "2025-12-10T16:57:12.023276+00:00", "meta": {"OBJECT_NAME": "IRIDIUM 33 DEB", "OBJECT_ID": "1997-051GZ", "EPOCH": "2025-12-10T09:12:01.319040", "MEAN_MOTION": 14.38393247, "ECCENTRICITY": 0.0066038, "INCLINATION": 86.3701, "RA_OF_ASC_NODE": 103.6419, "ARG_OF_PERICENTER": 180.4805, "MEAN_ANOMALY": 179.6341, "EPHEMERIS_TYPE": 0, "CLASSIFICATION_TYPE": "U", "NORAD_CAT_ID": 34508, "ELEMENT_SET_NO": 999, "REV_AT_EPOCH": 87275, "BSTAR": 0.0023927, "MEAN_MOTION_DOT": 7.501e-05, "MEAN_MOTION_DDOT": 0}, "tle": {"line1": "1 34508U 97051GZ  25344.38334860  .00007501  00000+0  23927-2 0  9992", "line2": "2 34508  86.3701 103.6419 0066038 180.4805 179.6341 14.38393247872754"}}, "geometry": {"type": "Point", "coordinates": [-71.77330967299397, -52.3618704558434]}}, {"type": "Feature", "properties": {"norad_id": 34521, "name": "IRIDIUM 33 DEB", "group": "iridium-33-debris", "lat": -47.272924634950094, "lon": -144.62681321000812, "alt_km": 688.4016596631127, "timestamp": "2025-12-10T16:57:12.023287+00:00", "meta": {"OBJECT_NAME": "IRIDIUM 33 DEB", "OBJECT_ID": "1997-051HN", "EPOCH": "2025-12-10T09:21:10.708992", "MEAN_MOTION": 14.63333363, "ECCENTRICITY": 0.000131, "INCLINATION": 86.3801, "RA_OF_ASC_NODE": 31.5825, "ARG_OF_PERICENTER": 230.6047, "MEAN_ANOMALY": 129.5049, "EPHEMERIS_TYPE": 0, "CLASSIFICATION_TYPE": "U", "NORAD_CAT_ID": 34521, "ELEMENT_SET_NO": 999, "REV_AT_EPOCH": 88438, "BSTAR": 0.0013317, "MEAN_MOTION_DOT": 6.896e-05, "MEAN_MOTION_DDOT": 0}, "tle": {"line1": "1 34521U 97051HN  25344.38970728  .00006896  00000+0  13317-2 0  9994", "line2": "2 34521  86.3801  31.5825 0001310 230.6047 129.5049 14.63333363884380"}}, "geometry": {"type": "Point", "coordinates": [-144.62681321000812, -47.272924634950094]}}, {"type": "Feature", "properties": {"norad_id": 34525, "name": "IRIDIUM 33 DEB", "group": "iridium-33-debris", "lat": -15.986743285019575, "lon": -131.24716611944464, "alt_km": 754.3347558101077, "timestamp": "2025-12-10T16:57:12.023297+00:00", "meta": {"OBJECT_NAME": "IRIDIUM 33 DEB", "OBJECT_ID": "1997-051HS", "EPOCH": "2025-12-10T11:07:21.115776", "MEAN_MOTION": 14.42897128, "ECCENTRICITY": 0.0006715, "INCLINATION": 86.3728, "RA_OF_ASC_NODE": 47.8152, "ARG_OF_PERICENTER": 100.6027, "MEAN_ANOMALY": 274.0369, "EPHEMERIS_TYPE": 0, "CLASSIFICATION_TYPE": "U", "NORAD_CAT_ID": 34525, "ELEMENT_SET_NO": 999, "REV_AT_EPOCH": 88055, "BSTAR": 0.00056459, "MEAN_MOTION_DOT": 1.905e-05, "MEAN_MOTION_DDOT": 0}, "tle": {"line1": "1 34525U 97051HS  25344.46343884  .00001905  00000+0  56459-3 0  9995", "line2": "2 34525  86.3728  47.8152 0006715 100.6027 274.0369 14.42897128880550"}}, "geometry": {"type": "Point", "coordinates": [-131.24716611944464, -15.986743285019575]}}]}